{
    "links": {
        "self": "http://www.neowsapp.com/rest/v1/neo/3691090?api_key=iIulBulltgU6a56xZRHN4H3l9WmuAYTsLGpBGhQ2"
    },
    "id": "3691090",
    "neo_reference_id": "3691090",
    "name": "(2014 SP260)",
    "designation": "2014 SP260",
    "nasa_jpl_url": "http://ssd.jpl.nasa.gov/sbdb.cgi?sstr=3691090",
    "absolute_magnitude_h": 23.4,
    "estimated_diameter": {
        "kilometers": {
            "estimated_diameter_min": 0.0555334912,
            "estimated_diameter_max": 0.1241766613
        },
        "meters": {
            "estimated_diameter_min": 55.5334911581,
            "estimated_diameter_max": 124.1766612574
        },
        "miles": {
            "estimated_diameter_min": 0.0345069009,
            "estimated_diameter_max": 0.0771597762
        },
        "feet": {
            "estimated_diameter_min": 182.1964991311,
            "estimated_diameter_max": 407.4037573197
        }
    },
    "is_potentially_hazardous_asteroid": false,
    "close_approach_data": [
        {
            "close_approach_date": "1992-10-19",
            "close_approach_date_full": "1992-Oct-19 16:33",
            "epoch_date_close_approach": 719512380000,
            "relative_velocity": {
                "kilometers_per_second": "8.0438182492",
                "kilometers_per_hour": "28957.7456971024",
                "miles_per_hour": "17993.2170416246"
            },
            "miss_distance": {
                "astronomical": "0.1729706123",
                "lunar": "67.2855681847",
                "kilometers": "25876035.172675801",
                "miles": "16078622.6806600138"
            },
            "orbiting_body": "Earth"
        },
        {
            "close_approach_date": "2003-10-23",
            "close_approach_date_full": "2003-Oct-23 13:40",
            "epoch_date_close_approach": 1066916400000,
            "relative_velocity": {
                "kilometers_per_second": "6.3190550148",
                "kilometers_per_hour": "22748.5980533341",
                "miles_per_hour": "14135.0941626398"
            },
            "miss_distance": {
                "astronomical": "0.1362394717",
                "lunar": "52.9971544913",
                "kilometers": "20381134.776245279",
                "miles": "12664249.9008876902"
            },
            "orbiting_body": "Earth"
        },
        {
            "close_approach_date": "2014-10-25",
            "close_approach_date_full": "2014-Oct-25 04:25",
            "epoch_date_close_approach": 1414211100000,
            "relative_velocity": {
                "kilometers_per_second": "5.4541415176",
                "kilometers_per_hour": "19634.9094633957",
                "miles_per_hour": "12200.3691607417"
            },
            "miss_distance": {
                "astronomical": "0.1612853051",
                "lunar": "62.7399836839",
                "kilometers": "24127938.105260137",
                "miles": "14992405.5315264106"
            },
            "orbiting_body": "Earth"
        },
        {
            "close_approach_date": "2025-10-23",
            "close_approach_date_full": "2025-Oct-23 18:45",
            "epoch_date_close_approach": 1761245100000,
            "relative_velocity": {
                "kilometers_per_second": "5.4817710712",
                "kilometers_per_hour": "19734.3758562456",
                "miles_per_hour": "12262.173709121"
            },
            "miss_distance": {
                "astronomical": "0.247010775",
                "lunar": "96.087191475",
                "kilometers": "36952285.80704925",
                "miles": "22961085.68080965"
            },
            "orbiting_body": "Earth"
        }
    ],
    "orbital_data": {
        "orbit_id": "9",
        "orbit_determination_date": "2017-04-06 08:38:26",
        "first_observation_date": "2014-09-24",
        "last_observation_date": "2014-10-26",
        "data_arc_in_days": 32,
        "observations_used": 25,
        "orbit_uncertainty": "6",
        "minimum_orbit_intersection": ".136499",
        "jupiter_tisserand_invariant": "4.123",
        "epoch_osculation": "2459000.5",
        "eccentricity": ".3588435580468636",
        "semi_major_axis": "1.693238691302539",
        "inclination": "9.665553799249086",
        "ascending_node_longitude": "185.4339663746398",
        "orbital_period": "804.7772713935741",
        "perihelion_distance": "1.085630894692921",
        "perihelion_argument": "227.8386204584457",
        "aphelion_distance": "2.300846487912158",
        "perihelion_time": "2459396.399589158628",
        "mean_anomaly": "182.9027369891947",
        "mean_motion": ".4473287365293186",
        "equinox": "J2000",
        "orbit_class": {
            "orbit_class_type": "AMO",
            "orbit_class_description": "Near-Earth asteroid orbits similar to that of 1221 Amor",
            "orbit_class_range": "1.017 AU < q (perihelion) < 1.3 AU"
        }
    },
    "is_sentry_object": false
}